FLOCK 4G-21             
1 62651U 25009AU  26068.19487675  .00013648  00000+0  49619-3 0  9998
2 62651  97.4032 151.1274 0000465 329.5782  30.5431 15.28381075 63677
STARLINK-36445          
1 67313U 26002J   26068.09217221  .00027346  00000+0  99900-3 0  9997
2 67313  43.0014 328.9810 0001036 287.6942  72.3796 15.27599119 11143
